OBJECT_NAME,OBJECT_ID,EPOCH,MEAN_MOTION,ECCENTRICITY,INCLINATION,RA_OF_ASC_NODE,ARG_OF_PERICENTER,MEAN_ANOMALY,EPHEMERIS_TYPE,CLASSIFICATION_TYPE,NORAD_CAT_ID,ELEMENT_SET_NO,REV_AT_EPOCH,BSTAR,MEAN_MOTION_DOT,MEAN_MOTION_DDOT
GOES 16,2016-071A,2026-07-17T14:29:09.953088,1.00271228,.00005678,0.4103,85.4547,85.8970,236.6588,0,U,41866,999,3540,0,-.1E-5,0
TIANLIAN 1-04,2016-072A,2026-07-17T14:06:49.593600,1.00271548,.0044183,0.9441,82.7060,90.7312,150.4394,0,U,41869,999,3560,0,.21E-6,0
WGS F8 (USA 272),2016-075A,2026-07-17T13:07:38.548416,1.00270130,.000019,0.0193,49.7104,119.0765,113.3002,0,U,41879,999,3512,0,-.212E-5,0
FENGYUN 4A,2016-077A,2026-07-17T15:34:22.699776,1.00266821,.00084296,2.3983,79.9379,159.6698,53.1597,0,U,41882,999,3523,0,-.367E-5,0
ECHOSTAR 19,2016-079A,2026-07-17T14:31:24.737952,1.00271309,.00013774,0.0182,53.4450,68.5520,294.1727,0,U,41893,999,3500,0,-.148E-5,0
JCSAT-110A (JCSAT-15),2016-082A,2026-07-17T14:04:47.112960,1.00267860,.0000757,0.0198,46.3780,112.6445,97.6386,0,U,41903,999,3506,0,-.36E-5,0
STAR ONE D1,2016-082B,2026-07-17T12:06:38.831040,1.00270618,.00022561,0.0079,322.6040,154.7950,275.5896,0,U,41904,999,3507,0,-.22E-5,0
TJS-2,2017-001A,2026-07-17T14:38:51.165024,1.00271264,.00008079,0.9100,84.9168,101.4512,35.2967,0,U,41911,999,3502,0,-.16E-6,0
SBIRS GEO-4 (USA 273),2017-004A,2026-07-17T15:05:13.994880,1.00281269,.00026597,2.3010,44.0475,67.0004,72.4362,0,U,41937,999,3490,0,.118E-5,0
HISPASAT 36W-1,2017-006A,2026-07-17T09:40:52.453632,1.00268245,.00010024,0.0142,229.7770,232.7281,301.9245,0,U,41942,999,3454,0,-.255E-5,0
TELKOM 3S,2017-007A,2026-07-17T15:04:01.066368,1.00270426,.00023787,0.0136,63.2517,53.8216,162.3816,0,U,41944,999,3444,0,0,0
INTELSAT 32E (IS-32E),2017-007B,2026-07-17T11:21:15.318144,1.00266326,.00007067,0.0204,56.8085,317.0659,48.5532,0,U,41945,999,3452,0,0,0
ECHOSTAR 23,2017-014A,2026-07-17T14:27:40.096224,1.00270678,.00021202,0.0185,49.4796,63.1068,289.8421,0,U,42070,999,3422,0,-.66E-6,0
WGS F9 (USA 275),2017-016A,2026-07-17T14:55:37.415712,1.00268987,.00002424,0.0209,56.0017,196.3380,255.0406,0,U,42075,999,3420,0,0,0
SES-10,2017-017A,2026-07-17T12:57:06.734592,1.00271826,.00025861,0.0176,49.3318,69.4792,303.9195,0,U,42432,999,3405,0,-.282E-5,0
CHINASAT 16 (SJ-13),2017-018A,2026-07-17T14:04:47.169120,1.00271984,.00052464,0.0904,88.8142,129.4376,38.8653,0,U,42662,999,3405,0,-.362E-5,0
KOREASAT 7,2017-023A,2026-07-17T15:32:07.914912,1.00273659,.00008782,0.0210,348.4463,115.7855,180.1498,0,U,42691,999,3367,0,-.371E-5,0
SGDC,2017-023B,2026-07-17T09:18:39.041568,1.00269877,.00023165,0.0162,322.9190,159.0498,238.0332,0,U,42692,999,3370,0,-.259E-5,0
GSAT-9,2017-024A,2026-07-17T15:59:10.119840,1.00277856,.00034048,0.0932,91.6366,47.7531,133.1231,0,U,42695,999,3360,0,-.296E-5,0
INMARSAT 5-F4,2017-025A,2026-07-17T08:13:38.513568,1.00272526,.00004584,0.0199,47.7192,132.8595,294.4937,0,U,42698,999,3358,0,.65E-6,0
SES-15,2017-026A,2026-07-17T11:24:38.573280,1.00278439,.00008465,0.0275,322.3959,173.7365,201.1742,0,U,42709,999,773,0,.49E-6,0
QZS-2 (MICHIBIKI-2),2017-028A,2026-07-17T10:34:03.414720,1.00276175,.07572426,39.3835,242.7078,269.6258,83.8926,0,U,42738,999,793,0,-.149E-5,0
VIASAT-2,2017-029A,2026-07-17T09:31:08.387040,1.00271644,.00005065,0.0201,305.1263,229.4622,193.5095,0,U,42740,999,3350,0,-.275E-5,0
EUTELSAT 172B,2017-029B,2026-07-17T13:38:38.882112,1.00270535,.00000614,0.0267,121.8579,148.5501,41.6187,0,U,42741,999,3404,0,-.16E-6,0
GSAT-19,2017-031A,2026-07-17T15:12:42.941376,1.00270334,.00062496,0.0450,89.1573,2.1612,120.1665,0,U,42747,999,3345,0,.116E-5,0
ECHOSTAR 21,2017-032A,2026-07-17T15:01:59.306304,1.00270374,.00022351,1.7706,357.6836,107.4631,66.0394,0,U,42749,999,3340,0,.57E-6,0
BULGARIASAT-1,2017-038A,2026-07-17T14:59:37.033152,1.00271805,.00030366,0.0099,11.3652,110.3704,40.4977,0,U,42801,999,3315,0,.2E-7,0
HELLAS-SAT 3,2017-040A,2026-07-17T13:27:33.814656,1.00272720,.00032393,0.0551,53.2187,24.8230,98.2121,0,U,42814,999,3311,0,.143E-5,0
GSAT-17,2017-040B,2026-07-17T15:25:41.695680,1.00269321,.00023652,0.0539,255.8526,20.1174,344.3845,0,U,42815,999,3309,0,-.266E-5,0
INTELSAT 35E (IS-35E),2017-041A,2026-07-17T11:23:52.567008,1.00272841,.00018835,0.0189,50.9911,67.1738,313.5877,0,U,42818,999,3311,0,-.248E-5,0
COSMOS 2520,2017-046A,2026-07-17T15:11:43.035936,1.00279083,.00008553,0.0323,107.4282,341.0028,119.9449,0,U,42907,999,3270,0,.127E-5,0
TDRS 13,2017-047A,2026-07-17T14:55:52.393152,1.00271916,.00148401,3.4601,3.4830,111.3745,33.1433,0,U,42915,999,3265,0,-.109E-5,0
